QIANFAN-168             
1 69385U 26124D   26182.57513936  .00000100  00000+0  41861-4 0  9998
2 69385  88.9986   0.4067 0004093 111.4088 248.7538 14.17875239  3857
QIANFAN-169             
1 69386U 26124E   26182.63912372  .00000101  00000+0  42228-4 0  9992
2 69386  88.9986   0.3976 0004563 124.0946 236.0677 14.18288990  3869
QIANFAN-170             
1 69387U 26124F   26182.62739869  .00000086  00000+0  34196-4 0  9997
2 69387  88.9986   0.3958 0003932 107.6756 252.4863 14.19185637  3869
QIANFAN-171             
1 69388U 26124G   26182.61547356  .00000095  00000+0  37689-4 0  9995
2 69388  88.9986   0.3941 0003768 143.8542 216.2903 14.20069748  3863
QIANFAN-172             
1 69389U 26124H   26182.62097254  .00000098  00000+0  39697-4 0  9998
2 69389  88.9986   0.3949 0003800 127.5525 232.6011 14.19640556  3861
QIANFAN-173             
1 69390U 26124J   26182.60968045  .00000095  00000+0  37504-4 0  9995
2 69390  88.9986   0.3933 0003950 119.6844 240.4740 14.20511859  3869
QIANFAN-174             
1 69391U 26124K   26182.60292024  .00000123  00000+0  50122-4 0  9996
2 69391  88.9986   0.3922 0004246 124.2430 235.9163 14.20880718  3861
QIANFAN-175             
1 69392U 26124L   26182.59791101  .00000101  00000+0  39777-4 0  9994
2 69392  88.9985   0.3914 0004983 135.1843 224.9751 14.21342017  3866
QIANFAN-176             
1 69393U 26124M   26182.59125383  .00000108  00000+0  42653-4 0  9992
2 69393  88.9985   0.3904 0003951 139.0531 221.0957 14.21843386  3868
QIANFAN-177             
1 69394U 26124N   26182.58046554  .00000101  00000+0  38487-4 0  9997
2 69394  88.9986   0.3888 0004812 117.6875 242.4806 14.22732758  3862
QIANFAN-178             
1 69395U 26124P   26182.58570919  .00000108  00000+0  41944-4 0  9994
2 69395  88.9985   0.3895 0004224 126.9764 233.1815 14.22276445  3860
QIANFAN-179             
1 69396U 26124Q   26182.57535990  .00000108  00000+0  41433-4 0  9997
2 69396  88.9985   0.3878 0004193 123.8401 236.3190 14.23099464  3867
QIANFAN-180             
1 69397U 26124R   26182.56972828  .00000114  00000+0  43746-4 0  9998
2 69397  88.9985   0.3872 0004564 131.7682 228.3901 14.23621222  3867
QIANFAN-181             
1 69398U 26124S   26182.59339563  .00000081  00000+0  33535-4 0  9993
2 69398  88.9986   0.4094 0003052 103.3755 256.7773 14.16651195  3858
QIANFAN-182             
1 69399U 26124T   26182.56311349  .00000108  00000+0  45058-4 0  9996
2 69399  88.9986   0.4049 0003570 120.1168 240.0376 14.18740672  3855
QIANFAN-183             
1 69401U 26125A   26182.60985602  .00000403  00000+0  19529-3 0  9996
2 69401  88.9955 278.8171 0015739 130.5394 229.7168 14.16469042  3746
QIANFAN-184             
1 69402U 26125B   26182.52967362  .00000412  00000+0  19824-3 0  9999
2 69402  88.9956 278.8240 0016552 125.2144 235.0596 14.16889144  3736
QIANFAN-185             
1 69403U 26125C   26182.60787191  .00000417  00000+0  20363-3 0  9994
2 69403  88.9956 278.8170 0017415 125.4327 234.8490 14.16094003  3746
QIANFAN-186             
1 69404U 26125D   26182.59033374  .00000399  00000+0  18990-3 0  9992
2 69404  88.9956 278.8145 0015849 126.4320 233.8333 14.17440056  3741
QIANFAN-187             
1 69405U 26125E   26182.57951831  .00000399  00000+0  18669-3 0  9991
2 69405  88.9956 278.8127 0016372 127.4234 232.8449 14.18350768  3747
QIANFAN-188             
1 69406U 26125F   26182.56615086  .00000414  00000+0  18964-3 0  9996
2 69406  88.9956 278.8105 0016392 130.8041 229.4573 14.19443149  3747
QIANFAN-189             
1 69407U 26125G   26182.57233063  .00000403  00000+0  18690-3 0  9993
2 69407  88.9956 278.8117 0015614 128.3642 231.8953 14.18762024  3740
QIANFAN-190             
1 69408U 26125H   26182.56662503  .00000414  00000+0  19031-3 0  9990
2 69408  88.9957 278.8109 0016411 129.8431 230.4206 14.19225102  3749
QIANFAN-191             
1 69409U 26125J   26182.55483032  .00000421  00000+0  19081-3 0  9991
2 69409  88.9956 278.8089 0015813 128.8005 231.4600 14.20096561  3743
QIANFAN-192             
1 69410U 26125K   26182.61932283  .00000434  00000+0  19528-3 0  9997
2 69410  88.9957 278.8002 0016673 128.8683 231.3998 14.20522690  3755
QIANFAN-193             
1 69411U 26125L   26182.61214206  .00000444  00000+0  19812-3 0  9993
2 69411  88.9956 278.7990 0016557 129.2368 231.0295 14.20965310  3753
QIANFAN-194             
1 69412U 26125M   26182.60666750  .00000446  00000+0  19729-3 0  9997
2 69412  88.9956 278.7981 0015869 132.7178 227.5352 14.21407067  3741
QIANFAN-195             
1 69413U 26125N   26182.53122708  .00000447  00000+0  19649-3 0  9992
2 69413  88.9956 278.8055 0017058 131.5662 228.6995 14.21804403  3742
QIANFAN-196             
1 69414U 26125P   26182.59553147  .00000435  00000+0  18901-3 0  9991
2 69414  88.9957 278.7965 0017183 131.7620 228.5043 14.22299486  3752
