OBJECT_NAME,OBJECT_ID,EPOCH,MEAN_MOTION,ECCENTRICITY,INCLINATION,RA_OF_ASC_NODE,ARG_OF_PERICENTER,MEAN_ANOMALY,EPHEMERIS_TYPE,CLASSIFICATION_TYPE,NORAD_CAT_ID,ELEMENT_SET_NO,REV_AT_EPOCH,BSTAR,MEAN_MOTION_DOT,MEAN_MOTION_DDOT
QIANFAN-168,2026-124D,2026-07-01T13:48:12.040704,14.17875239,.00040933,88.9986,0.4067,111.4088,248.7538,0,U,69385,999,385,.41860918E-4,.1E-5,0
QIANFAN-169,2026-124E,2026-07-01T15:20:20.289408,14.18288990,.00045631,88.9986,0.3976,124.0946,236.0677,0,U,69386,999,386,.42227667E-4,.101E-5,0
QIANFAN-170,2026-124F,2026-07-01T15:03:27.246816,14.19185637,.00039325,88.9986,0.3958,107.6756,252.4863,0,U,69387,999,386,.3419593E-4,.86E-6,0
QIANFAN-171,2026-124G,2026-07-01T14:46:16.915584,14.20069748,.00037681,88.9986,0.3941,143.8542,216.2903,0,U,69388,999,386,.37688787E-4,.95E-6,0
QIANFAN-172,2026-124H,2026-07-01T14:54:12.027456,14.19640556,.00038001,88.9986,0.3949,127.5525,232.6011,0,U,69389,999,386,.39696579E-4,.98E-6,0
QIANFAN-173,2026-124J,2026-07-01T14:37:56.390880,14.20511859,.000395,88.9986,0.3933,119.6844,240.4740,0,U,69390,999,386,.37504098E-4,.95E-6,0
QIANFAN-174,2026-124K,2026-07-01T14:28:12.308736,14.20880718,.0004246,88.9986,0.3922,124.2430,235.9163,0,U,69391,999,386,.50122368E-4,.123E-5,0
QIANFAN-175,2026-124L,2026-07-01T14:20:59.511264,14.21342017,.00049833,88.9985,0.3914,135.1843,224.9751,0,U,69392,999,386,.3977678E-4,.101E-5,0
QIANFAN-176,2026-124M,2026-07-01T14:11:24.330912,14.21843386,.00039514,88.9985,0.3904,139.0531,221.0957,0,U,69393,999,386,.42653102E-4,.108E-5,0
QIANFAN-177,2026-124N,2026-07-01T13:55:52.222656,14.22732758,.00048123,88.9986,0.3888,117.6875,242.4806,0,U,69394,999,386,.38487182E-4,.101E-5,0
QIANFAN-178,2026-124P,2026-07-01T14:03:25.274016,14.22276445,.00042241,88.9985,0.3895,126.9764,233.1815,0,U,69395,999,386,.41944471E-4,.108E-5,0
QIANFAN-179,2026-124Q,2026-07-01T13:48:31.095360,14.23099464,.00041939,88.9985,0.3878,123.8401,236.3190,0,U,69396,999,386,.41432664E-4,.108E-5,0
QIANFAN-180,2026-124R,2026-07-01T13:40:24.523392,14.23621222,.00045646,88.9985,0.3872,131.7682,228.3901,0,U,69397,999,386,.43745557E-4,.114E-5,0
QIANFAN-181,2026-124S,2026-07-01T14:14:29.382432,14.16651195,.00030523,88.9986,0.4094,103.3755,256.7773,0,U,69398,999,385,.33535303E-4,.81E-6,0
QIANFAN-182,2026-124T,2026-07-01T13:30:53.005536,14.18740672,.00035704,88.9986,0.4049,120.1168,240.0376,0,U,69399,999,385,.45058483E-4,.108E-5,0
QIANFAN-183,2026-125A,2026-07-01T14:38:11.560128,14.16469042,.00157393,88.9955,278.8171,130.5394,229.7168,0,U,69401,999,374,.19529148E-3,.403E-5,0
QIANFAN-184,2026-125B,2026-07-01T12:42:43.800768,14.16889144,.00165528,88.9956,278.8240,125.2144,235.0596,0,U,69402,999,373,.19824028E-3,.412E-5,0
QIANFAN-185,2026-125C,2026-07-01T14:35:20.133024,14.16094003,.00174155,88.9956,278.8170,125.4327,234.8490,0,U,69403,999,374,.20362712E-3,.417E-5,0
QIANFAN-186,2026-125D,2026-07-01T14:10:04.835136,14.17440056,.00158495,88.9956,278.8145,126.4320,233.8333,0,U,69404,999,374,.18989972E-3,.399E-5,0
QIANFAN-187,2026-125E,2026-07-01T13:54:30.381984,14.18350768,.00163729,88.9956,278.8127,127.4234,232.8449,0,U,69405,999,374,.18669101E-3,.399E-5,0
QIANFAN-188,2026-125F,2026-07-01T13:35:15.434304,14.19443149,.00163927,88.9956,278.8105,130.8041,229.4573,0,U,69406,999,374,.18963866E-3,.414E-5,0
QIANFAN-189,2026-125G,2026-07-01T13:44:09.366432,14.18762024,.00156149,88.9956,278.8117,128.3642,231.8953,0,U,69407,999,374,.18689744E-3,.403E-5,0
QIANFAN-190,2026-125H,2026-07-01T13:35:56.402592,14.19225102,.00164113,88.9957,278.8109,129.8431,230.4206,0,U,69408,999,374,.19031206E-3,.414E-5,0
QIANFAN-191,2026-125J,2026-07-01T13:18:57.339648,14.20096561,.00158133,88.9956,278.8089,128.8005,231.4600,0,U,69409,999,374,.19081101E-3,.421E-5,0
QIANFAN-192,2026-125K,2026-07-01T14:51:49.492512,14.20522690,.00166734,88.9957,278.8002,128.8683,231.3998,0,U,69410,999,375,.19528117E-3,.434E-5,0
QIANFAN-193,2026-125L,2026-07-01T14:41:29.073984,14.20965310,.0016557,88.9956,278.7990,129.2368,231.0295,0,U,69411,999,375,.19812293E-3,.444E-5,0
QIANFAN-194,2026-125M,2026-07-01T14:33:36.072000,14.21407067,.0015869,88.9956,278.7981,132.7178,227.5352,0,U,69412,999,374,.19729231E-3,.446E-5,0
QIANFAN-195,2026-125N,2026-07-01T12:44:58.019712,14.21804403,.00170581,88.9956,278.8055,131.5662,228.6995,0,U,69413,999,374,.19648898E-3,.447E-5,0
QIANFAN-196,2026-125P,2026-07-01T14:17:33.919008,14.22299486,.00171837,88.9957,278.7965,131.7620,228.5043,0,U,69414,999,375,.18901244E-3,.435E-5,0
